STARLINK-1916
1 16766C 20074AD  21326.10556009  .00008386  00000-0  56207-3 0  3264
2 16766  53.0504 178.2743 0002011  76.2188 138.9349 15.06374863    17
